[Satellite]
VERSION=1.1
NAME=COSMOS 1844
NICKNAME=COSMOS 1844
TLE1=1 17973U 87041A   22342.36349177  .00000343  00000+0  20432-3 0  9993
TLE2=2 17973  70.8989  17.7762 0030801   0.5988 359.5165 14.14171836835705
STATUS=0
